NORAD_CAT_ID,OBJECT_NAME,OBJECT_TYPE,EPOCH,MEAN_MOTION,ECCENTRICITY,INCLINATION,RA_OF_ASC_NODE,ARG_OF_PERICENTER,MEAN_ANOMALY,BSTAR,MEAN_MOTION_DOT,MEAN_MOTION_DDOT,TLE_LINE0,TLE_LINE1,TLE_LINE2,SEMIMAJOR_AXIS,PERIOD,APOGEE,PERIGEE,DECAYED
51972.0,STARLINK-3671,PAYLOAD,2022-07-05 14:00:01,15.08859089,0.0001541999999999,53.2167,298.5441,55.8238,180.3685,-0.001383,-0.00022242,0.0,0 STARLINK-3671,1 51972U 22025S   22186.58334491 -.00022242  00000-0 -13830-2 0  9992,2 51972  53.2167 298.5441 0001542  55.8238 180.3685 15.08859089  1304,6917.821999999999,95.436,540.754,538.62,0.0
51972.0,STARLINK-3671,PAYLOAD,2022-07-05 22:00:00,15.0885649,0.0001547,53.2163,297.0472,55.757,192.0395,-0.0032022,-0.00050914,0.0,0 STARLINK-3671,1 51972U 22025S   22186.91667824 -.00050914  00000-0 -32022-2 0  9999,2 51972  53.2163 297.0472 0001547  55.7570 192.0395 15.08856490  1302,6917.83,95.437,540.765,538.625,0.0
51972.0,STARLINK-3671,PAYLOAD,2022-07-06 14:00:01,15.08833084,0.0001593,53.2162,294.055,58.3574,212.6153,-0.00036962,-6.165e-05,0.0,0 STARLINK-3671,1 51972U 22025S   22187.58334491 -.00006165  00000-0 -36962-3 0  9991,2 51972  53.2162 294.0550 0001593  58.3574 212.6153 15.08833084  1304,6917.901999999999,95.438,540.869,538.665,0.0
51972.0,STARLINK-3671,PAYLOAD,2022-07-06 16:00:00,15.0882098,0.0001615,53.2163,293.6812,57.4004,306.4718,0.001413,0.0002226,0.0,0 STARLINK-3671,1 51972U 22025S   22187.66667824  .00022260  00000-0  14130-2 0  9993,2 51972  53.2163 293.6812 0001615  57.4004 306.4718 15.08820980 19707,6917.939,95.439,540.9209999999998,538.686,0.0
51972.0,STARLINK-3671,PAYLOAD,2022-07-06 22:00:00,15.08853129,0.0001533,53.2158,292.558,57.5898,224.9626,-0.0020485,-0.00032754,0.0,0 STARLINK-3671,1 51972U 22025S   22187.91667824 -.00032754  00000-0 -20485-2 0  9992,2 51972  53.2158 292.5580 0001533  57.5898 224.9626 15.08853129  1302,6917.84,95.437,540.766,538.645,0.0
51972.0,STARLINK-3671,PAYLOAD,2022-07-07 12:39:01,15.08842839,0.0001529,53.2174,289.8168,59.6414,300.4729,4.8004e-05,4.76e-06,0.0,0 STARLINK-3671,1 51972U 22025S   22188.52710567  .00000476  00000-0  48004-4 0  9996,2 51972  53.2174 289.8168 0001529  59.6414 300.4729 15.08842839 18738,6917.871999999999,95.437,540.794,538.679,0.0
51972.0,STARLINK-3671,PAYLOAD,2022-07-07 22:00:00,15.08868231,0.0001588,53.2155,288.0687,58.599,258.7627,-0.0044366,-0.00070263,0.0,0 STARLINK-3671,1 51972U 22025S   22188.91667824 -.00070263  00000-0 -44366-2 0  9994,2 51972  53.2155 288.0687 0001588  58.5990 258.7627 15.08868231  1307,6917.794,95.436,540.758,538.561,0.0
51972.0,STARLINK-3671,PAYLOAD,2022-07-08 02:57:29,15.08846157,0.0001581,53.2173,287.1405,60.1701,299.9448,0.00015725,2.216e-05,0.0,0 STARLINK-3671,1 51972U 22025S   22189.12325655  .00002216  00000-0  15725-3 0  9990,2 51972  53.2173 287.1405 0001581  60.1701 299.9448 15.08846157 19925,6917.861999999999,95.437,540.82,538.633,0.0
51972.0,STARLINK-3671,PAYLOAD,2022-07-08 12:29:48,15.08846594,0.0001587,53.2173,285.3563,62.0626,298.0526,0.00014581,2.034e-05,0.0,0 STARLINK-3671,1 51972U 22025S   22189.52069568  .00002034  00000-0  14581-3 0  9999,2 51972  53.2173 285.3563 0001587  62.0626 298.0526 15.08846594 18889,6917.86,95.437,540.823,538.627,0.0
51972.0,STARLINK-3671,PAYLOAD,2022-07-08 22:00:01,15.08911668,0.000157,53.2153,283.5787,56.5413,295.7431,-0.0047857,-0.000758,0.0,0 STARLINK-3671,1 51972U 22025S   22189.91668981 -.00075800  00000-0 -47857-2 0  9990,2 51972  53.2153 283.5787 0001570  56.5413 295.7431 15.08911668 20044,6917.661,95.433,540.612,538.44,0.0
51972.0,STARLINK-3671,PAYLOAD,2022-07-09 14:00:01,15.0879668,0.0001649,53.2157,280.5867,55.8276,319.6189,-0.0026134,-0.00041592,0.0,0 STARLINK-3671,1 51972U 22025S   22190.58334491 -.00041592  00000-0 -26134-2 0  9997,2 51972  53.2157 280.5867 0001649  55.8276 319.6189 15.08796680  1309,6918.013000000001,95.44,541.019,538.737,0.0
51972.0,STARLINK-3671,PAYLOAD,2022-07-09 20:00:01,15.08779305,0.0001595,53.2155,279.4639,53.5282,240.5651,-0.00065872,-0.00010739,0.0,0 STARLINK-3671,1 51972U 22025S   22190.83334491 -.00010739  00000-0 -65872-3 0  9997,2 51972  53.2155 279.4639 0001595  53.5282 240.5651 15.08779305  1304,6918.066,95.441,541.034,538.827,0.0
51972.0,STARLINK-3671,PAYLOAD,2022-07-10 06:00:00,15.08797087,0.0001595,53.2161,277.5924,62.9612,335.5255,0.0022133,0.00035071,0.0,0 STARLINK-3671,1 51972U 22025S   22191.25001157  .00035071  00000-0  22133-2 0  9990,2 51972  53.2161 277.5924 0001595  62.9612 335.5255 15.08797087 20244,6918.012,95.44,540.98,538.773,0.0
51972.0,STARLINK-3671,PAYLOAD,2022-07-10 14:00:01,15.08817709,0.0001816,53.2161,276.0977,57.4085,352.6992,0.0010438,0.00016353,0.0,0 STARLINK-3671,1 51972U 22025S   22191.58334491  .00016353  00000-0  10438-2 0  9993,2 51972  53.2161 276.0977 0001816  57.4085 352.6992 15.08817709 20292,6917.949000000001,95.439,541.07,538.557,0.0
51972.0,STARLINK-3671,PAYLOAD,2022-07-10 22:00:00,15.0884679,0.0001720999999999,53.2162,274.6002,58.3631,3.3182,-0.0015422,-0.00024753,0.0,0 STARLINK-3671,1 51972U 22025S   22191.91667824 -.00024753  00000-0 -15422-2 0  9992,2 51972  53.2162 274.6002 0001721  58.3631   3.3182 15.08846790  1302,6917.86,95.437,540.915,538.534,0.0
51972.0,STARLINK-3671,PAYLOAD,2022-07-11 14:00:01,15.0881274,0.0001734,53.2165,271.6087,54.2819,30.6,0.0014938,0.00023548,0.0,0 STARLINK-3671,1 51972U 22025S   22192.58334491  .00023548  00000-0  14938-2 0  9997,2 51972  53.2165 271.6087 0001734  54.2819  30.6000 15.08812740  1302,6917.964,95.439,541.028,538.629,0.0
51972.0,STARLINK-3671,PAYLOAD,2022-07-11 22:00:00,15.0884245,0.000162,53.2165,270.1111,56.4155,40.0381,-0.0012332,-0.00019862,0.0,0 STARLINK-3671,1 51972U 22025S   22192.91667824 -.00019862  00000-0 -12332-2 0  9995,2 51972  53.2165 270.1111 0001620  56.4155  40.0381 15.08842450  1303,6917.873000000001,95.437,540.859,538.617,0.0
51972.0,STARLINK-3671,PAYLOAD,2022-07-12 14:00:01,15.08849714,0.0001667,53.2165,267.1199,51.7013,67.9449,-0.00075596,-0.00012302,0.0,0 STARLINK-3671,1 51972U 22025S   22193.58334491 -.00012302  00000-0 -75596-3 0  9994,2 51972  53.2165 267.1199 0001667  51.7013  67.9449 15.08849714 20604,6917.851,95.437,540.869,538.562,0.0
51972.0,STARLINK-3671,PAYLOAD,2022-07-12 22:00:00,15.08844509,0.0001471,53.2162,265.6222,53.3886,77.869,-0.00037516,-6.254e-05,0.0,0 STARLINK-3671,1 51972U 22025S   22193.91667824 -.00006254  00000-0 -37516-3 0  9999,2 51972  53.2162 265.6222 0001471  53.3886  77.8690 15.08844509  1301,6917.8669999999975,95.437,540.749,538.714,0.0
51972.0,STARLINK-3671,PAYLOAD,2022-07-13 14:00:01,15.08806035,0.0001486,53.216,262.6309,46.0555,108.4012,0.0017206,0.00027176,0.0,0 STARLINK-3671,1 51972U 22025S   22194.58334491  .00027176  00000-0  17206-2 0  9991,2 51972  53.2160 262.6309 0001486  46.0555 108.4012 15.08806035  1301,6917.984,95.44,540.877,538.821,0.0
51972.0,STARLINK-3671,PAYLOAD,2022-07-13 22:00:00,15.08821643,0.0001344,53.2155,261.1333,50.9508,115.0717,-0.0014595,-0.00023429,0.0,0 STARLINK-3671,1 51972U 22025S   22194.91667824 -.00023429  00000-0 -14595-2 0  9994,2 51972  53.2155 261.1333 0001344  50.9508 115.0717 15.08821643  1309,6917.936,95.439,540.731,538.872,0.0
51972.0,STARLINK-3671,PAYLOAD,2022-07-14 08:00:01,15.08830186,0.000139,53.2153,259.2635,52.8749,217.5957,-0.0011823,-0.0001905,0.0,0 STARLINK-3671,1 51972U 22025S   22195.33334491 -.00019050  00000-0 -11823-2 0  9998,2 51972  53.2153 259.2635 0001390  52.8749 217.5957 15.08830186 20867,6917.91,95.438,540.737,538.814,0.0
51972.0,STARLINK-3671,PAYLOAD,2022-07-14 14:00:01,15.08793852,0.0001509,53.2151,258.1422,47.4044,141.7448,0.002587,0.00041072,0.0,0 STARLINK-3671,1 51972U 22025S   22195.58334491  .00041072  00000-0  25870-2 0  9999,2 51972  53.2151 258.1422 0001509  47.4044 141.7448 15.08793852  1306,6918.021,95.44,540.93,538.8430000000002,0.0
51972.0,STARLINK-3671,PAYLOAD,2022-07-14 22:00:00,15.08821283,0.0001358,53.2157,256.6443,51.9581,148.7537,-9.2471e-05,-1.758e-05,0.0,0 STARLINK-3671,1 51972U 22025S   22195.91667824 -.00001758  00000-0 -92471-4 0  9997,2 51972  53.2157 256.6443 0001358  51.9581 148.7537 15.08821283  1302,6917.938,95.439,540.742,538.863,0.0
51972.0,STARLINK-3671,PAYLOAD,2022-07-15 06:00:00,15.08839712,0.000138,53.2168,255.1482,55.7765,156.5025,-0.00067359,-0.00010992,0.0,0 STARLINK-3671,1 51972U 22025S   22196.25001157 -.00010992  00000-0 -67359-3 0  9992,2 51972  53.2168 255.1482 0001380  55.7765 156.5025 15.08839712 21006,6917.880999999999,95.438,540.701,538.7919999999998,0.0
51972.0,STARLINK-3671,PAYLOAD,2022-07-15 14:00:01,15.08810675,0.0001539,53.2165,253.6532,46.9112,176.96400000000003,0.0030225,0.00048105,0.0,0 STARLINK-3671,1 51972U 22025S   22196.58334491  .00048105  00000-0  30225-2 0  9994,2 51972  53.2165 253.6532 0001539  46.9112 176.9640 15.08810675  1303,6917.97,95.439,540.9,538.77,0.0
51972.0,STARLINK-3671,PAYLOAD,2022-07-15 22:00:00,15.08829066,0.0001385999999999,53.2161,252.1551,51.827,183.625,0.00016425,2.326e-05,0.0,0 STARLINK-3671,1 51972U 22025S   22196.91667824  .00002326  00000-0  16425-3 0  9992,2 51972  53.2161 252.1551 0001386  51.8270 183.6250 15.08829066  1300,6917.9140000000025,95.438,540.738,538.82,0.0
51972.0,STARLINK-3671,PAYLOAD,2022-07-16 06:00:00,15.08860417,0.0001434,53.2164,250.6603,55.2092,191.8343,-0.00077289,-0.00012574,0.0,0 STARLINK-3671,1 51972U 22025S   22197.25001157 -.00012574  00000-0 -77289-3 0  9994,2 51972  53.2164 250.6603 0001434  55.2092 191.8343 15.08860417 21152,6917.818,95.436,540.675,538.691,0.0
51972.0,STARLINK-3671,PAYLOAD,2022-07-16 14:00:01,15.08827968,0.0001593,53.216,249.1639,46.3942,212.2649,0.0032379,0.00051604,0.0,0 STARLINK-3671,1 51972U 22025S   22197.58334491  .00051604  00000-0  32379-2 0  9995,2 51972  53.2160 249.1639 0001593  46.3942 212.2649 15.08827968  1307,6917.917,95.438,540.884,538.68,0.0
